2026-028A               
1 67756U 26028A   26049.27381038 -.00000334  00000+0  00000+0 0  9991
2 67756   0.5146 288.0844 0045374  50.3017  21.3974  1.00850596    68
CREW DRAGON 12          
1 67796U 26031A   26049.53796808  .00009650  00000+0  18483-3 0  9990
2 67796  51.6325 167.0200 0010945 111.2724 248.9434 15.48685385   784
