CCSDS_OMM_VERS = 2.0
CREATION_DATE  = 
ORIGINATOR     = 

OBJECT_NAME    = 2026-028A
OBJECT_ID      = 2026-028A
CENTER_NAME    = EARTH
REF_FRAME      = TEME
TIME_SYSTEM    = UTC
MEAN_ELEMENT_THEORY = SGP/SGP4

EPOCH          = 2026-02-18T06:34:17.216832
MEAN_MOTION    = 1.00850596
ECCENTRICITY   = .00453743
INCLINATION    = 0.5146
RA_OF_ASC_NODE = 288.0844
ARG_OF_PERICENTER = 50.3017
MEAN_ANOMALY   = 21.3974

EPHEMERIS_TYPE = 0
CLASSIFICATION_TYPE = U
NORAD_CAT_ID   = 67756
ELEMENT_SET_NO = 999
REV_AT_EPOCH   = 6
BSTAR          = 0
MEAN_MOTION_DOT = -.334E-5
MEAN_MOTION_DDOT = 0

CCSDS_OMM_VERS = 2.0
CREATION_DATE  = 
ORIGINATOR     = 

OBJECT_NAME    = CREW DRAGON 12
OBJECT_ID      = 2026-031A
CENTER_NAME    = EARTH
REF_FRAME      = TEME
TIME_SYSTEM    = UTC
MEAN_ELEMENT_THEORY = SGP/SGP4

EPOCH          = 2026-02-18T12:54:40.442112
MEAN_MOTION    = 15.48685385
ECCENTRICITY   = .00109451
INCLINATION    = 51.6325
RA_OF_ASC_NODE = 167.0200
ARG_OF_PERICENTER = 111.2724
MEAN_ANOMALY   = 248.9434

EPHEMERIS_TYPE = 0
CLASSIFICATION_TYPE = U
NORAD_CAT_ID   = 67796
ELEMENT_SET_NO = 999
REV_AT_EPOCH   = 78
BSTAR          = .18483332E-3
MEAN_MOTION_DOT = .965E-4
MEAN_MOTION_DDOT = 0

